STARLINK-2253_new
1 18596C 21041AV  21326.16856374 -.00002030  00000-0 -13600-3 0  3268
2 18596  53.0555 342.9826 0001475  55.3159  54.0877 15.06407314    19
STARLINK-2253_old
1 28596C 21041AV  21325.13853987 -.00000703  00000-0 -47091-4 0  3257
2 28596  53.0556 347.6066 0001464  55.4623 224.9999 15.06396854    12
